MTUSI-1
1 61750U 24199R   25072.19515828  .00033764  00000-0  11749-2 0  9996
2 61750  97.3694 301.4257 0013851 142.3458 217.8754 15.29532099 66568
VLADIVOSTOK-1
1 61751U 24199S   25072.20794189  .00017043  00000-0  63846-3 0  9996
2 61751  97.3701 301.2619 0013164 141.3709 218.8475 15.27260852 66567
SITRO-AIS-14
1 61752U 24199T   25072.21405653  .00007379  00000-0  69393-3 0  9997
2 61752  97.3714 295.1693 0006855 170.6344 189.5006 14.94143152 66205
HORS-3 (RS81S)
1 61753U 24199U   25072.16910709  .00031722  00000-0  10957-2 0  9995
2 61753  97.3692 301.4568 0012464 139.2778 220.9397 15.29804468 66563
HORS-4 (RS82S)
1 61754U 24199V   25072.21012364  .00033067  00000-0  11232-2 0  9993
2 61754  97.3688 301.5506 0012556 139.3523 220.8657 15.30338635 66572
SITRO-AIS-43
1 61755U 24199W   25072.16726932  .00039463  00000-0  13075-2 0  9994
2 61755  97.3693 301.6098 0011475 137.6125 222.6005 15.31117622 66573
SITRO-AIS-42
1 61756U 24199X   25072.16586960  .00039769  00000-0  13168-2 0  9992
2 61756  97.3694 301.6121 0011462 138.1014 222.1107 15.31136483 66575
HORIZON (RS59S)
1 61757U 24199Y   25072.21056118  .00044241  00000-0  14278-2 0  9990
2 61757  97.3715 301.7449 0013528 130.3912 229.8512 15.31911981 66589
SITRO-AIS-20
1 61758U 24199Z   25072.20155203  .00007683  00000-0  71887-3 0  9994
2 61758  97.3713 295.1815 0006434 173.7968 186.3335 14.94335080 66208
SITRO-AIS-19
1 61759U 24199AA  25072.19957165  .00007106  00000-0  66529-3 0  9997
2 61759  97.3714 295.1849 0006305 174.9479 185.1807 14.94334770 66200
SITRO-AIS-41
1 61760U 24199AB  25072.17289060  .00038591  00000-0  12855-2 0  9993
2 61760  97.3696 301.6056 0011357 138.5150 221.6955 15.30950176 66574
2024-199AC
1 61761U 24199AC  25072.19238203  .00033389  00000-0  11339-2 0  9995
2 61761  97.3691 301.5764 0011289 139.4747 220.7337 15.30357705 66574
ARCTICSAT-1 (RS74S)
1 61762U 24199AD  25072.19378188  .00043749  00000-0  14082-2 0  9992
2 61762  97.3713 301.7648 0013451 128.6707 231.5741 15.32000384 66582
SIT-HSE
1 61763U 24199AE  25072.22830967  .00038271  00000-0  12692-2 0  9994
2 61763  97.3695 301.6819 0011206 138.1121 222.0979 15.31097316 66581
SIT-2086
1 61764U 24199AF  25072.22156763  .00036910  00000-0  12232-2 0  9998
2 61764  97.3694 301.6911 0010962 138.4383 221.7694 15.31130448 63429
MORDOVIA-IOT (RS50S)
1 61765U 24199AG  25072.17925862  .00058753  00000-0  17730-2 0  9994
2 61765  97.3709 301.9351 0013013 126.8285 233.4153 15.33988031 63443
RUZAEVKA-390 (RS44S)
1 61766U 24199AH  25072.20007703  .00053093  00000-0  16347-2 0  9999
2 61766  97.3706 301.9040 0013061 126.3363 233.9087 15.33377338 63444
2024-199AJ (? AHMAT-2)
1 61767U 24199AJ  25072.20171698  .00056066  00000-0  16473-2 0  9998
2 61767  97.3695 302.0392 0012504 124.5385 235.7040 15.34852090 63453
HOD-HOD
1 61768U 24199AK  25072.18378996  .00028642  00000-0  98335-3 0  9993
2 61768  97.3699 301.6014 0009452 142.3389 217.8515 15.30054907 63426
KOSAR
1 61769U 24199AL  25072.22612650  .00031185  00000-0  10552-2 0  9997
2 61769  97.3694 301.6894 0009300 141.7003 218.4900 15.30510601 63430
2024-199AM
1 61770U 24199AM  25072.18605353  .02834284  74643-2  71712-2 0  9990
2 61770  97.3308 304.5868 0005204 141.0559 219.1093 15.97403344 63647
SITRO-AIS-48
1 61771U 24199AN  25072.21978883  .00031620  00000-0  11094-2 0  9998
2 61771  97.3668 301.3472 0014599 150.3965 209.8104 15.29266926 63416
HYPERVIEW-1G (RS66S)
1 61772U 24199AP  25072.18145475  .00042371  00000-0  14357-2 0  9998
2 61772  97.3689 301.4363 0015926 144.0981 216.1333 15.30315351 63417
SITRO-AIS-47
1 61773U 24199AQ  25072.21937056  .00036138  00000-0  12626-2 0  9998
2 61773  97.3670 301.3505 0014597 150.5273 209.6793 15.29375169 63412
SITRO-AIS-46
1 61774U 24199AR  25072.21371756  .00035837  00000-0  12449-2 0  9996
2 61774  97.3666 301.3545 0014693 150.4366 209.7708 15.29563264 63413
CSTP-2.2
1 61775U 24199AS  25072.18046518  .00021583  00000-0  80981-3 0  9998
2 61775  97.3703 301.1486 0016863 145.5007 214.7330 15.27105426 63390
SITRO-AIS-40
1 61776U 24199AT  25072.21605316  .00037030  00000-0  12864-2 0  9998
2 61776  97.3668 301.3540 0014788 150.8799 209.3269 15.29553003 66568
CSTP-2.1
1 61777U 24199AU  25072.18007820  .00021619  00000-0  81090-3 0  9995
2 61777  97.3699 301.1472 0016907 146.4942 213.7370 15.27115728 63397
SITRO-AIS-39
1 61778U 24199AV  25072.23321762  .00034979  00000-0  12299-2 0  9993
2 61778  97.3668 301.3312 0014944 151.6709 208.5347 15.29170155 63413
ALTAIR (RS65S)
1 61779U 24199AW  25072.19751457  .00018016  00000-0  68563-3 0  9997
2 61779  97.3708 301.1294 0017133 145.8598 214.3746 15.26668520 66540
SITRO-AIS-37
1 61780U 24199AX  25072.23368643  .00036066  00000-0  12656-2 0  9991
2 61780  97.3678 301.3445 0015196 151.6290 208.5781 15.29224469 63419
ASRTU-1 (RS64S/BJ2CR)
1 61781U 24199AY  25072.14811884  .00016995  00000-0  65142-3 0  9990
2 61781  97.3696 301.0387 0017343 146.1602 214.0747 15.26439905 63384
TUSUR GO (RS78S)
1 61782U 24199AZ  25072.20106703  .00046283  00000-0  15579-2 0  9996
2 61782  97.3686 301.4121 0016787 143.6689 216.5695 15.30495276 63413
ZIMSAT-2 (Z2AS)
1 61783U 24199BA  25072.12266413  .00052102  00000-0  16478-2 0  9999
2 61783  97.3681 301.5083 0016736 143.6861 216.5520 15.32472149 66565
SAMSAT-IONOSPHERE (RS75S)
1 61784U 24199BB  25072.24289753  .00035435  00000-0  12472-2 0  9995
2 61784  97.3695 301.3614 0017078 144.5356 215.7023 15.29100592 66563
RTU MIREA-1 (RS51S)
1 61785U 24199BC  25072.23479526  .00037356  00000-0  13055-2 0  9996
2 61785  97.3694 301.3718 0016947 143.9016 216.3372 15.29323342 63413
SITRO-AIS-38
1 61786U 24199BD  25072.23843270  .00035240  00000-0  12404-2 0  9995
2 61786  97.3673 301.3301 0015147 152.5185 207.6859 15.29129850 63414
2024-199BE (? SWSU-60)
1 61787U 24199BE  25072.21806406  .00017320  00000-0  66540-3 0  9994
2 61787  97.3704 301.0990 0017551 145.7917 214.4456 15.26356276 66546
SITRO-AIS-45
1 61788U 24199BF  25072.22822496  .00035987  00000-0  12643-2 0  9996
2 61788  97.3665 301.3296 0014864 151.1800 209.0265 15.29191831 63396
SITRO-AIS-17
1 61789U 24199BG  25072.19741917  .00006673  00000-0  62461-3 0  9995
2 61789  97.3718 295.1943 0006379 178.9862 181.1373 14.94362823 63103
SITRO-AIS-18
1 61790U 24199BH  25072.19892838  .00006866  00000-0  64295-3 0  9997
2 61790  97.3715 295.1864 0006303 176.5785 183.5480 14.94337032 63108
LIGNOSAT
1 62296U 98067XC  25072.17824381  .00512842  00000-0  23160-2 0  9991
2 62296  51.6251  53.5000 0006138  28.9276 331.2065 15.82048474 14673
YOMOGI
1 62298U 98067XE  25072.22528644  .00548760  00000-0  23351-2 0  9992
2 62298  51.6231  53.0543 0006103  31.4218 328.7149 15.83230919 14680
POEM-4
1 62461U 24253C   25071.94701888  .00361109  61943-4  95056-3 0  9990
2 62461  55.2138 269.9168 0005076 132.6104 227.5380 15.94321776 11421
PLEIADES-ORPHEUS
1 98724C 24248D   24356.55167141  .00080857  00000+0  38463-2 0    06
2 98724  44.9996   0.5278 0003834  18.1359 115.7653 15.18415623    15
CROCUBE
1 98799U          24356.55243530  .00075084  00000+0  37160-2 0    04
2 98799  45.0011   0.5205 0005283 101.7631  36.3233 15.17035563    11
LASARSAT
1 98797U          24356.55243530  .00075084  00000+0  37160-2 0    02
2 98797  45.0011   0.5205 0005283 101.7631  36.3233 15.17035563    19
